CCSDS_OMM_VERS = 2.0
CREATION_DATE  = 
ORIGINATOR     = 

OBJECT_NAME    = SL-14 R/B
OBJECT_ID      = 1986-046B
CENTER_NAME    = EARTH
REF_FRAME      = TEME
TIME_SYSTEM    = UTC
MEAN_ELEMENT_THEORY = SGP/SGP4

EPOCH          = 2026-03-15T11:09:48.226464
MEAN_MOTION    = 14.85596076
ECCENTRICITY   = .00223741
INCLINATION    = 82.4783
RA_OF_ASC_NODE = 74.7227
ARG_OF_PERICENTER = 205.4712
MEAN_ANOMALY   = 154.5404

EPHEMERIS_TYPE = 0
CLASSIFICATION_TYPE = U
NORAD_CAT_ID   = 16792
ELEMENT_SET_NO = 999
REV_AT_EPOCH   = 12726
BSTAR          = .50254544E-4
MEAN_MOTION_DOT = .461E-5
MEAN_MOTION_DDOT = 0

CCSDS_OMM_VERS = 2.0
CREATION_DATE  = 
ORIGINATOR     = 

OBJECT_NAME    = SL-14 R/B
OBJECT_ID      = 1986-055B
CENTER_NAME    = EARTH
REF_FRAME      = TEME
TIME_SYSTEM    = UTC
MEAN_ELEMENT_THEORY = SGP/SGP4

EPOCH          = 2026-03-15T14:42:27.131328
MEAN_MOTION    = 14.85647906
ECCENTRICITY   = .00177317
INCLINATION    = 82.5189
RA_OF_ASC_NODE = 121.1064
ARG_OF_PERICENTER = 316.0449
MEAN_ANOMALY   = 199.3654

EPHEMERIS_TYPE = 0
CLASSIFICATION_TYPE = U
NORAD_CAT_ID   = 16882
ELEMENT_SET_NO = 999
REV_AT_EPOCH   = 12024
BSTAR          = .42362932E-4
MEAN_MOTION_DOT = .392E-5
MEAN_MOTION_DDOT = 0

CCSDS_OMM_VERS = 2.0
CREATION_DATE  = 
ORIGINATOR     = 

OBJECT_NAME    = AJISAI (EGS)
OBJECT_ID      = 1986-061A
CENTER_NAME    = EARTH
REF_FRAME      = TEME
TIME_SYSTEM    = UTC
MEAN_ELEMENT_THEORY = SGP/SGP4

EPOCH          = 2026-03-15T14:22:09.598944
MEAN_MOTION    = 12.44515673
ECCENTRICITY   = .00112866
INCLINATION    = 50.0084
RA_OF_ASC_NODE = 75.1763
ARG_OF_PERICENTER = 302.2540
MEAN_ANOMALY   = 220.4256

EPHEMERIS_TYPE = 0
CLASSIFICATION_TYPE = U
NORAD_CAT_ID   = 16908
ELEMENT_SET_NO = 999
REV_AT_EPOCH   = 46873
BSTAR          = .35644992E-4
MEAN_MOTION_DOT = -.92E-6
MEAN_MOTION_DDOT = 0

CCSDS_OMM_VERS = 2.0
CREATION_DATE  = 
ORIGINATOR     = 

OBJECT_NAME    = SL-14 R/B
OBJECT_ID      = 1987-024B
CENTER_NAME    = EARTH
REF_FRAME      = TEME
TIME_SYSTEM    = UTC
MEAN_ELEMENT_THEORY = SGP/SGP4

EPOCH          = 2026-03-15T11:54:51.962400
MEAN_MOTION    = 14.86137624
ECCENTRICITY   = .00168604
INCLINATION    = 82.5243
RA_OF_ASC_NODE = 87.3043
ARG_OF_PERICENTER = 239.0131
MEAN_ANOMALY   = 120.9430

EPHEMERIS_TYPE = 0
CLASSIFICATION_TYPE = U
NORAD_CAT_ID   = 17567
ELEMENT_SET_NO = 999
REV_AT_EPOCH   = 8899
BSTAR          = .48015959E-4
MEAN_MOTION_DOT = .446E-5
MEAN_MOTION_DDOT = 0

CCSDS_OMM_VERS = 2.0
CREATION_DATE  = 
ORIGINATOR     = 

OBJECT_NAME    = COSMOS 1833
OBJECT_ID      = 1987-027A
CENTER_NAME    = EARTH
REF_FRAME      = TEME
TIME_SYSTEM    = UTC
MEAN_ELEMENT_THEORY = SGP/SGP4

EPOCH          = 2026-03-15T15:57:38.630880
MEAN_MOTION    = 14.13053084
ECCENTRICITY   = .00239686
INCLINATION    = 70.9209
RA_OF_ASC_NODE = 313.4608
ARG_OF_PERICENTER = 206.0201
MEAN_ANOMALY   = 153.9717

EPHEMERIS_TYPE = 0
CLASSIFICATION_TYPE = U
NORAD_CAT_ID   = 17589
ELEMENT_SET_NO = 999
REV_AT_EPOCH   = 1116
BSTAR          = -.85081039E-4
MEAN_MOTION_DOT = -.207E-5
MEAN_MOTION_DDOT = 0

CCSDS_OMM_VERS = 2.0
CREATION_DATE  = 
ORIGINATOR     = 

OBJECT_NAME    = SL-16 R/B
OBJECT_ID      = 1987-027B
CENTER_NAME    = EARTH
REF_FRAME      = TEME
TIME_SYSTEM    = UTC
MEAN_ELEMENT_THEORY = SGP/SGP4

EPOCH          = 2026-03-15T13:13:08.820192
MEAN_MOTION    = 14.17166677
ECCENTRICITY   = .00031653
INCLINATION    = 70.9992
RA_OF_ASC_NODE = 264.1430
ARG_OF_PERICENTER = 129.3462
MEAN_ANOMALY   = 230.7943

EPHEMERIS_TYPE = 0
CLASSIFICATION_TYPE = U
NORAD_CAT_ID   = 17590
ELEMENT_SET_NO = 999
REV_AT_EPOCH   = 1617
BSTAR          = .32285119E-4
MEAN_MOTION_DOT = .17E-6
MEAN_MOTION_DDOT = 0

CCSDS_OMM_VERS = 2.0
CREATION_DATE  = 
ORIGINATOR     = 

OBJECT_NAME    = SL-14 R/B
OBJECT_ID      = 1987-038B
CENTER_NAME    = EARTH
REF_FRAME      = TEME
TIME_SYSTEM    = UTC
MEAN_ELEMENT_THEORY = SGP/SGP4

EPOCH          = 2026-03-15T13:28:56.127936
MEAN_MOTION    = 14.85374514
ECCENTRICITY   = .00201528
INCLINATION    = 82.4991
RA_OF_ASC_NODE = 291.2752
ARG_OF_PERICENTER = 141.7104
MEAN_ANOMALY   = 218.5547

EPHEMERIS_TYPE = 0
CLASSIFICATION_TYPE = U
NORAD_CAT_ID   = 17912
ELEMENT_SET_NO = 999
REV_AT_EPOCH   = 8010
BSTAR          = .44181874E-4
MEAN_MOTION_DOT = .406E-5
MEAN_MOTION_DDOT = 0

CCSDS_OMM_VERS = 2.0
CREATION_DATE  = 
ORIGINATOR     = 

OBJECT_NAME    = COSMOS 1844
OBJECT_ID      = 1987-041A
CENTER_NAME    = EARTH
REF_FRAME      = TEME
TIME_SYSTEM    = UTC
MEAN_ELEMENT_THEORY = SGP/SGP4

EPOCH          = 2026-03-15T13:15:29.901888
MEAN_MOTION    = 14.14551115
ECCENTRICITY   = .00303228
INCLINATION    = 70.9005
RA_OF_ASC_NODE = 21.8093
ARG_OF_PERICENTER = 9.2696
MEAN_ANOMALY   = 350.8979

EPHEMERIS_TYPE = 0
CLASSIFICATION_TYPE = U
NORAD_CAT_ID   = 17973
ELEMENT_SET_NO = 999
REV_AT_EPOCH   = 441
BSTAR          = -.2946801E-4
MEAN_MOTION_DOT = -.105E-5
MEAN_MOTION_DDOT = 0

CCSDS_OMM_VERS = 2.0
CREATION_DATE  = 
ORIGINATOR     = 

OBJECT_NAME    = SL-14 R/B
OBJECT_ID      = 1987-055B
CENTER_NAME    = EARTH
REF_FRAME      = TEME
TIME_SYSTEM    = UTC
MEAN_ELEMENT_THEORY = SGP/SGP4

EPOCH          = 2026-03-15T11:17:11.740992
MEAN_MOTION    = 14.85636315
ECCENTRICITY   = .00206249
INCLINATION    = 82.5028
RA_OF_ASC_NODE = 343.5848
ARG_OF_PERICENTER = 359.0232
MEAN_ANOMALY   = 1.0940

EPHEMERIS_TYPE = 0
CLASSIFICATION_TYPE = U
NORAD_CAT_ID   = 18153
ELEMENT_SET_NO = 999
REV_AT_EPOCH   = 7079
BSTAR          = .5543831E-4
MEAN_MOTION_DOT = .506E-5
MEAN_MOTION_DDOT = 0

CCSDS_OMM_VERS = 2.0
CREATION_DATE  = 
ORIGINATOR     = 

OBJECT_NAME    = COSMOS 1867
OBJECT_ID      = 1987-060A
CENTER_NAME    = EARTH
REF_FRAME      = TEME
TIME_SYSTEM    = UTC
MEAN_ELEMENT_THEORY = SGP/SGP4

EPOCH          = 2026-03-15T14:08:17.016576
MEAN_MOTION    = 14.31503923
ECCENTRICITY   = .00145815
INCLINATION    = 65.0100
RA_OF_ASC_NODE = 290.1841
ARG_OF_PERICENTER = 279.0030
MEAN_ANOMALY   = 80.9404

EPHEMERIS_TYPE = 0
CLASSIFICATION_TYPE = U
NORAD_CAT_ID   = 18187
ELEMENT_SET_NO = 999
REV_AT_EPOCH   = 2078
BSTAR          = .33428732E-4
MEAN_MOTION_DOT = -.11E-6
MEAN_MOTION_DDOT = 0

CCSDS_OMM_VERS = 2.0
CREATION_DATE  = 
ORIGINATOR     = 

OBJECT_NAME    = SL-14 R/B
OBJECT_ID      = 1988-001B
CENTER_NAME    = EARTH
REF_FRAME      = TEME
TIME_SYSTEM    = UTC
MEAN_ELEMENT_THEORY = SGP/SGP4

EPOCH          = 2026-03-15T14:25:01.768224
MEAN_MOTION    = 14.85535118
ECCENTRICITY   = .00172148
INCLINATION    = 82.5159
RA_OF_ASC_NODE = 189.8020
ARG_OF_PERICENTER = 214.9471
MEAN_ANOMALY   = 145.0617

EPHEMERIS_TYPE = 0
CLASSIFICATION_TYPE = U
NORAD_CAT_ID   = 18749
ELEMENT_SET_NO = 999
REV_AT_EPOCH   = 4290
BSTAR          = .57711567E-4
MEAN_MOTION_DOT = .524E-5
MEAN_MOTION_DDOT = 0

CCSDS_OMM_VERS = 2.0
CREATION_DATE  = 
ORIGINATOR     = 

OBJECT_NAME    = COSMOS 1933
OBJECT_ID      = 1988-020A
CENTER_NAME    = EARTH
REF_FRAME      = TEME
TIME_SYSTEM    = UTC
MEAN_ELEMENT_THEORY = SGP/SGP4

EPOCH          = 2026-03-15T12:35:54.589632
MEAN_MOTION    = 15.18044040
ECCENTRICITY   = .00043419
INCLINATION    = 82.5104
RA_OF_ASC_NODE = 245.1373
ARG_OF_PERICENTER = 163.6289
MEAN_ANOMALY   = 196.5086

EPHEMERIS_TYPE = 0
CLASSIFICATION_TYPE = U
NORAD_CAT_ID   = 18958
ELEMENT_SET_NO = 999
REV_AT_EPOCH   = 5111
BSTAR          = .19380361E-3
MEAN_MOTION_DOT = .3975E-4
MEAN_MOTION_DDOT = 0

