SL-14 R/B               
1 16792U 86046B   26074.46514151  .00000461  00000+0  50255-4 0  9996
2 16792  82.4783  74.7227 0022374 205.4712 154.5404 14.85596076127269
SL-14 R/B               
1 16882U 86055B   26074.61281402  .00000392  00000+0  42363-4 0  9997
2 16882  82.5189 121.1064 0017731 316.0449 199.3654 14.85647906120247
AJISAI (EGS)            
1 16908U 86061A   26074.59872221 -.00000092  00000+0  35645-4 0  9998
2 16908  50.0084  75.1763 0011286 302.2540 220.4256 12.44515673468733
SL-14 R/B               
1 17567U 87024B   26074.49643475  .00000446  00000+0  48016-4 0  9994
2 17567  82.5243  87.3043 0016860 239.0131 120.9430 14.86137624 88992
COSMOS 1833             
1 17589U 87027A   26074.66503045 -.00000207  00000+0 -85081-4 0  9998
2 17589  70.9209 313.4608 0023968 206.0201 153.9717 14.13053084 11164
SL-16 R/B               
1 17590U 87027B   26074.55079653  .00000017  00000+0  32285-4 0  9996
2 17590  70.9992 264.1430 0003165 129.3462 230.7943 14.17166677 16171
SL-14 R/B               
1 17912U 87038B   26074.56176074  .00000406  00000+0  44182-4 0  9993
2 17912  82.4991 291.2752 0020152 141.7104 218.5547 14.85374514 80104
COSMOS 1844             
1 17973U 87041A   26074.55242942 -.00000105  00000+0 -29468-4 0  9999
2 17973  70.9005  21.8093 0030322   9.2696 350.8979 14.14551115  4413
SL-14 R/B               
1 18153U 87055B   26074.47027478  .00000506  00000+0  55438-4 0  9990
2 18153  82.5028 343.5848 0020624 359.0232   1.0940 14.85636315 70797
COSMOS 1867             
1 18187U 87060A   26074.58908584 -.00000011  00000+0  33429-4 0  9999
2 18187  65.0100 290.1841 0014581 279.0030  80.9404 14.31503923 20787
SL-14 R/B               
1 18749U 88001B   26074.60071491  .00000524  00000+0  57712-4 0  9999
2 18749  82.5159 189.8020 0017214 214.9471 145.0617 14.85535118 42902
COSMOS 1933             
1 18958U 88020A   26074.52493738  .00003975  00000+0  19380-3 0  9996
2 18958  82.5104 245.1373 0004341 163.6289 196.5086 15.18044040 51115
